{
  "type": "FeatureCollection",
  "features": [
    {
      "type": "Feature",
      "properties": {
        "norad_id": 41384,
        "name": "IRNSS-1F",
        "group": "gnss",
        "lat": 4.549438278147599,
        "lon": -148.8393277475526,
        "alt_km": 35753.624194466545,
        "timestamp": "2025-12-02T07:10:09.356970+00:00",
        "meta_object_name": "IRNSS-1F",
        "meta_object_id": "2016-015A",
        "meta_epoch": "2025-12-01T13:58:09.226272",
        "meta_mean_motion": 1.002668,
        "meta_eccentricity": 0.00223665,
        "meta_inclination": 4.8523,
        "meta_ra_of_asc_node": 101.5772,
        "meta_arg_of_pericenter": 179.3166,
        "meta_mean_anomaly": 31.7686,
        "meta_ephemeris_type": 0,
        "meta_classification_type": "U",
        "meta_norad_cat_id": 41384,
        "meta_element_set_no": 999,
        "meta_rev_at_epoch": 3568,
        "meta_bstar": 0,
        "meta_mean_motion_dot": 1.8e-06,
        "meta_mean_motion_ddot": 0,
        "tle_line1": "1 41384U 16015A   25335.58205123  .00000180  00000+0  00000+0 0  9994",
        "tle_line2": "2 41384   4.8523 101.5772 0022366 179.3166  31.7686  1.00266800 35685"
      },
      "geometry": {
        "type": "Point",
        "coordinates": [
          -148.8393277475526,
          4.549438278147599
        ]
      }
    },
    {
      "type": "Feature",
      "properties": {
        "norad_id": 41434,
        "name": "BEIDOU-2 IGSO-6 (C13)",
        "group": "gnss",
        "lat": -42.18596999751054,
        "lon": -108.38809421460965,
        "alt_km": 35545.822655073134,
        "timestamp": "2025-12-02T07:10:09.356982+00:00",
        "meta_object_name": "BEIDOU-2 IGSO-6 (C13)",
        "meta_object_id": "2016-021A",
        "meta_epoch": "2025-11-29T16:01:16.721760",
        "meta_mean_motion": 1.00257137,
        "meta_eccentricity": 0.00590915,
        "meta_inclination": 59.9454,
        "meta_ra_of_asc_node": 40.0323,
        "meta_arg_of_pericenter": 231.0312,
        "meta_mean_anomaly": 130.2075,
        "meta_ephemeris_type": 0,
        "meta_classification_type": "U",
        "meta_norad_cat_id": 41434,
        "meta_element_set_no": 999,
        "meta_rev_at_epoch": 3548,
        "meta_bstar": 0,
        "meta_mean_motion_dot": -1.5e-06,
        "meta_mean_motion_ddot": 0,
        "tle_line1": "1 41434U 16021A   25333.66755465 -.00000150  00000+0  00000+0 0  9991",
        "tle_line2": "2 41434  59.9454  40.0323 0059091 231.0312 130.2075  1.00257137 35486"
      },
      "geometry": {
        "type": "Point",
        "coordinates": [
          -108.38809421460965,
          -42.18596999751054
        ]
      }
    },
    {
      "type": "Feature",
      "properties": {
        "norad_id": 41469,
        "name": "IRNSS-1G",
        "group": "gnss",
        "lat": -2.07345867553887,
        "lon": -51.66363492425613,
        "alt_km": 35793.67068650156,
        "timestamp": "2025-12-02T07:10:09.356994+00:00",
        "meta_object_name": "IRNSS-1G",
        "meta_object_id": "2016-027A",
        "meta_epoch": "2025-12-01T20:42:51.672384",
        "meta_mean_motion": 1.00266862,
        "meta_eccentricity": 0.0001414,
        "meta_inclination": 4.7099,
        "meta_ra_of_asc_node": 102.3688,
        "meta_arg_of_pericenter": 16.5693,
        "meta_mean_anomaly": 32.2523,
        "meta_ephemeris_type": 0,
        "meta_classification_type": "U",
        "meta_norad_cat_id": 41469,
        "meta_element_set_no": 999,
        "meta_rev_at_epoch": 3520,
        "meta_bstar": 0,
        "meta_mean_motion_dot": -3.13e-06,
        "meta_mean_motion_ddot": 0,
        "tle_line1": "1 41469U 16027A   25335.86309806 -.00000313  00000+0  00000+0 0  9994",
        "tle_line2": "2 41469   4.7099 102.3688 0001414  16.5693  32.2523  1.00266862 35201"
      },
      "geometry": {
        "type": "Point",
        "coordinates": [
          -51.66363492425613,
          -2.07345867553887
        ]
      }
    },
    {
      "type": "Feature",
      "properties": {
        "norad_id": 41549,
        "name": "GSAT0211 (GALILEO 14)",
        "group": "gnss",
        "lat": 3.991717460540639,
        "lon": -130.10609537622756,
        "alt_km": 23210.893346184333,
        "timestamp": "2025-12-02T07:10:09.357007+00:00",
        "meta_object_name": "GSAT0211 (GALILEO 14)",
        "meta_object_id": "2016-030A",
        "meta_epoch": "2025-11-28T18:30:37.119744",
        "meta_mean_motion": 1.70472998,
        "meta_eccentricity": 0.00037617,
        "meta_inclination": 55.1573,
        "meta_ra_of_asc_node": 227.2083,
        "meta_arg_of_pericenter": 3.3414,
        "meta_mean_anomaly": 356.7341,
        "meta_ephemeris_type": 0,
        "meta_classification_type": "U",
        "meta_norad_cat_id": 41549,
        "meta_element_set_no": 999,
        "meta_rev_at_epoch": 5925,
        "meta_bstar": 0,
        "meta_mean_motion_dot": 2.6e-07,
        "meta_mean_motion_ddot": 0,
        "tle_line1": "1 41549U 16030A   25332.77126296  .00000026  00000+0  00000+0 0  9994",
        "tle_line2": "2 41549  55.1573 227.2083 0003761   3.3414 356.7341  1.70472998 59254"
      },
      "geometry": {
        "type": "Point",
        "coordinates": [
          -130.10609537622756,
          3.991717460540639
        ]
      }
    },
    {
      "type": "Feature",
      "properties": {
        "norad_id": 41550,
        "name": "GSAT0210 (GALILEO 13)",
        "group": "gnss",
        "lat": -21.788599218409768,
        "lon": 63.25380626649469,
        "alt_km": 23222.232958776982,
        "timestamp": "2025-12-02T07:10:09.357021+00:00",
        "meta_object_name": "GSAT0210 (GALILEO 13)",
        "meta_object_id": "2016-030B",
        "meta_epoch": "2025-12-01T09:00:06.320160",
        "meta_mean_motion": 1.70473417,
        "meta_eccentricity": 0.0001216,
        "meta_inclination": 55.1557,
        "meta_ra_of_asc_node": 227.1346,
        "meta_arg_of_pericenter": 241.6156,
        "meta_mean_anomaly": 118.4503,
        "meta_ephemeris_type": 0,
        "meta_classification_type": "U",
        "meta_norad_cat_id": 41550,
        "meta_element_set_no": 999,
        "meta_rev_at_epoch": 5929,
        "meta_bstar": 0,
        "meta_mean_motion_dot": 3.2e-07,
        "meta_mean_motion_ddot": 0,
        "tle_line1": "1 41550U 16030B   25335.37507315  .00000032  00000+0  00000+0 0  9997",
        "tle_line2": "2 41550  55.1557 227.1346 0001216 241.6156 118.4503  1.70473417 59296"
      },
      "geometry": {
        "type": "Point",
        "coordinates": [
          63.25380626649469,
          -21.788599218409768
        ]
      }
    },
    {
      "type": "Feature",
      "properties": {
        "norad_id": 41586,
        "name": "BEIDOU-2 G7 (C03)",
        "group": "gnss",
        "lat": -1.1604751759816971,
        "lon": -70.64004025790317,
        "alt_km": 35801.49946031785,
        "timestamp": "2025-12-02T07:10:09.357035+00:00",
        "meta_object_name": "BEIDOU-2 G7 (C03)",
        "meta_object_id": "2016-037A",
        "meta_epoch": "2025-12-01T19:28:34.240224",
        "meta_mean_motion": 1.00272547,
        "meta_eccentricity": 0.0004485,
        "meta_inclination": 1.728,
        "meta_ra_of_asc_node": 67.6674,
        "meta_arg_of_pericenter": 5.9435,
        "meta_mean_anomaly": 39.9401,
        "meta_ephemeris_type": 0,
        "meta_classification_type": "U",
        "meta_norad_cat_id": 41586,
        "meta_element_set_no": 999,
        "meta_rev_at_epoch": 491,
        "meta_bstar": 0,
        "meta_mean_motion_dot": -3.32e-06,
        "meta_mean_motion_ddot": 0,
        "tle_line1": "1 41586U 16037A   25335.81150741 -.00000332  00000+0  00000+0 0  9993",
        "tle_line2": "2 41586   1.7280  67.6674 0004485   5.9435  39.9401  1.00272547  4915"
      },
      "geometry": {
        "type": "Point",
        "coordinates": [
          -70.64004025790317,
          -1.1604751759816971
        ]
      }
    },
    {
      "type": "Feature",
      "properties": {
        "norad_id": 41589,
        "name": "EUTELSAT 117 WEST B (WAAS/PRN 131)",
        "group": "gnss",
        "lat": -0.015360854714955744,
        "lon": 61.9284895041975,
        "alt_km": 35786.2606144526,
        "timestamp": "2025-12-02T07:10:09.357047+00:00",
        "meta_object_name": "EUTELSAT 117 WEST B (WAAS/PRN 131)",
        "meta_object_id": "2016-038B",
        "meta_epoch": "2025-12-01T14:58:10.977024",
        "meta_mean_motion": 1.00272248,
        "meta_eccentricity": 1.08e-05,
        "meta_inclination": 0.0065,
        "meta_ra_of_asc_node": 141.8344,
        "meta_arg_of_pericenter": 143.4656,
        "meta_mean_anomaly": 252.9964,
        "meta_ephemeris_type": 0,
        "meta_classification_type": "U",
        "meta_norad_cat_id": 41589,
        "meta_element_set_no": 999,
        "meta_rev_at_epoch": 3468,
        "meta_bstar": 0,
        "meta_mean_motion_dot": 1e-07,
        "meta_mean_motion_ddot": 0,
        "tle_line1": "1 41589U 16038B   25335.62373816  .00000010  00000+0  00000+0 0  9998",
        "tle_line2": "2 41589   0.0065 141.8344 0000108 143.4656 252.9964  1.00272248 34687"
      },
      "geometry": {
        "type": "Point",
        "coordinates": [
          61.9284895041975,
          -0.015360854714955744
        ]
      }
    }
  ]
}